OBJECT_NAME,OBJECT_ID,EPOCH,MEAN_MOTION,ECCENTRICITY,INCLINATION,RA_OF_ASC_NODE,ARG_OF_PERICENTER,MEAN_ANOMALY,EPHEMERIS_TYPE,CLASSIFICATION_TYPE,NORAD_CAT_ID,ELEMENT_SET_NO,REV_AT_EPOCH,BSTAR,MEAN_MOTION_DOT,MEAN_MOTION_DDOT
HST,1990-037B,2026-06-24T23:11:47.893056,15.30829347,.0001442,28.4728,27.4055,233.5980,126.4483,0,U,20580,999,78976,.22544E-3,.7148E-4,0
POLAR,1996-013A,2026-06-21T15:48:09.590112,1.29846120,.64748323,79.8598,226.9999,208.9246,90.1528,0,U,23802,999,14491,0,.83E-6,0
SWAS,1998-071A,2026-06-25T03:58:30.743904,15.09660889,.0008785,69.8945,206.9431,251.7160,108.3049,0,U,25560,999,49847,.17183E-3,.2669E-4,0
CXO,1999-040B,2026-06-26T07:28:02.155584,0.37800874,.78186452,56.2784,116.4107,310.1913,0.3296,0,U,25867,999,1735,0,.484E-5,0
XMM-NEWTON,1999-066A,2026-06-26T07:47:46.821408,0.50127949,.46710495,64.4359,282.8679,64.7288,0.1080,0,U,25989,999,2304,0,.6E-7,0
TERRA,1999-068A,2026-06-25T04:08:58.534080,14.61108857,.0002213,97.9452,225.4025,166.0791,286.5226,0,U,25994,999,41077,.82728E-4,.362E-5,0
CLUSTER II-FM7 (SAMBA),2000-041A,2026-06-26T01:33:12.192480,0.44870397,.90618129,149.9012,52.3742,269.6784,359.6419,0,U,26410,999,2035,0,.5882E-4,0
CLUSTER II-FM8 (TANGO),2000-045B,2026-06-21T22:36:54.211968,0.44420336,.90628137,150.1352,52.7746,269.8657,2.6673,0,U,26464,999,2033,0,.4849E-4,0
ODIN,2001-007A,2026-06-25T02:08:31.250976,15.78592061,.0006632,97.3797,217.5522,132.9735,227.2089,0,U,26702,999,39064,.14705E-2,.262742E-2,0
TIMED,2001-055B,2026-06-25T04:05:34.604160,14.95307852,.0001531,74.0663,218.9441,324.7901,35.3183,0,U,26998,999,33201,.86118E-4,.91E-5,0
CORIOLIS,2003-001A,2026-06-25T00:27:04.247424,14.19946790,.0013835,98.7125,182.7840,185.5642,174.5383,0,U,27640,999,21533,.6376E-4,.92E-6,0
SORCE,2003-004A,2026-06-23T20:20:05.981280,15.03739410,.00162233,39.9898,223.6787,100.3840,259.8783,0,U,27651,999,27290,.14354376E-3,.1856E-4,0
MOST,2003-031D,2026-06-24T22:55:05.632320,14.21323914,.0008986,98.7044,183.5725,225.3245,134.7201,0,U,27843,999,19181,.49913E-4,.65E-6,0
SCISAT 1,2003-036A,2026-06-25T04:39:31.707072,14.81455644,.0008297,73.9288,155.4341,225.7509,134.2987,0,U,27858,999,23263,.80508E-4,.594E-5,0
SWIFT,2004-047A,2026-06-24T22:41:07.503072,15.69013211,.0001465,20.5513,125.0243,47.4003,312.6566,0,U,28485,999,18808,.46641E-3,.57656E-3,0
HINODE (SOLAR-B),2006-041A,2026-06-25T00:29:32.431200,14.68632389,.001596,98.0544,192.0576,262.6030,97.3362,0,U,29479,999,5602,.11689E-3,.631E-5,0
SHIJIAN-6 02A (SJ-6 02A),2006-046A,2026-06-25T04:55:07.227264,15.17020717,.0004725,97.6360,217.3319,107.8664,252.3085,0,U,29505,999,7348,.27114E-3,.5293E-4,0
SHIJIAN-6 02B (SJ-6 02B),2006-046B,2026-06-25T05:03:19.190592,15.01393133,.0015384,97.7163,205.2201,37.8375,322.3927,0,U,29506,999,7194,.73139E-4,.884E-5,0
FGRST (GLAST),2008-029A,2026-06-25T05:12:18.648864,15.23976521,.0008374,25.5803,148.7236,62.7059,297.4331,0,U,33053,999,99706,.90368E-4,.2588E-4,0
SDO,2010-005A,2026-06-23T07:20:30.148800,1.00270594,.00017333,34.6648,86.2482,49.0122,144.1818,0,U,36395,999,6012,0,-.88E-6,0
CRYOSAT 2,2010-013A,2026-06-25T05:08:16.726272,14.51901746,.0002125,92.0359,279.2526,93.7804,266.3646,0,U,36508,999,85924,.30605E-4,.126E-5,0
X-SAT,2011-015C,2026-06-25T05:29:39.436224,14.25207655,.0013388,98.3512,152.8691,324.4135,35.6151,0,U,37389,999,78882,-.32837E-4,-.118E-5,0
GCOM-W1 (SHIZUKU),2012-025A,2026-06-23T13:51:50.105664,14.57129425,.0001698,98.2021,115.0366,71.2428,101.7942,0,U,38337,999,74996,.82821577E-4,.328E-5,0
NUSTAR,2012-031A,2026-06-25T06:00:02.000160,15.08874694,.0008854,6.0286,333.6716,235.4807,208.5040,0,U,38358,999,130,.27509E-3,.5328E-4,0
NEOSSAT,2013-009D,2026-06-25T00:20:44.247264,14.35828953,.001022,98.4181,355.8609,218.2277,141.8185,0,U,39089,999,69786,.6296E-4,.139E-5,0
BRITE-AUSTRIA,2013-009F,2026-06-25T01:53:27.043008,14.36544953,.0009524,98.3998,355.3192,210.7244,149.3386,0,U,39091,999,69818,.71218E-4,.166E-5,0
IRIS,2013-033A,2026-06-25T02:39:57.971232,14.85899429,.0023077,97.9328,15.3633,294.6296,65.2515,0,U,39197,999,70155,.11878E-3,.984E-5,0
HISAKI (SPRINT-A),2013-049A,2026-06-23T18:10:40.271520,13.55545251,.01368523,29.7171,186.6070,70.1162,291.4100,0,U,39253,999,63231,.62314747E-4,.109E-5,0
CASSIOPE,2013-055A,2026-06-25T03:56:05.363808,15.25909260,.0289798,80.9142,57.0304,35.6523,326.3684,0,U,39265,999,66888,.5824E-3,.5366E-3,-.25555E-6
STSAT-3,2013-066G,2026-06-25T04:04:12.055872,15.02795739,.001054,97.6218,145.9290,23.0845,337.0852,0,U,39422,999,68540,.18591E-3,.243E-4,0
SWARM B,2013-067A,2026-06-25T04:28:05.989152,15.28596142,.0003083,87.7440,339.8861,81.6940,278.4659,0,U,39451,999,68446,.12872E-3,.3613E-4,0
